H1 CPF  1  DLR 2021 08 15 10  7272 technosat            
H2  1704205 6203    42829 2021 08 15 00 00 00 2021 08 22 00 00 00    60 1 1  0 0 0
H9
10 0 59444   7200.000000  0       1130541.897      -6881320.686       -304378.292
10 0 59444   7260.000000  0       1036908.400      -6861584.156       -752489.989
10 0 59444   7320.000000  0        939218.491      -6812163.431      -1197415.126
10 0 59444   7380.000000  0        838142.203      -6733236.185      -1637270.039
10 0 59444   7440.000000  0        734361.669      -6625110.879      -2070193.068
10 0 59444   7500.000000  0        628567.104      -6488225.431      -2494352.577
10 0 59444   7560.000000  0        521452.736      -6323145.280      -2907954.821
10 0 59444   7620.000000  0        413712.760      -6130560.860      -3309251.627
10 0 59444   7680.000000  0        306037.297      -5911284.464      -3696547.878
10 0 59444   7740.000000  0        199108.405      -5666246.523      -4068208.696
10 0 59444   7800.000000  0         93596.165      -5396491.334      -4422666.296
10 0 59444   7860.000000  0         -9845.125      -5103172.335      -4758426.482
10 0 59444   7920.000000  0       -110580.618      -4787546.936      -5074074.825
10 0 59444   7980.000000  0       -207998.472      -4450970.883      -5368282.494
10 0 59444   8040.000000  0       -301513.236      -4094892.193      -5639811.684
10 0 59444   8100.000000  0       -390569.042      -3720844.710      -5887520.601
10 0 59444   8160.000000  0       -474642.614      -3330441.349      -6110368.042
10 0 59444   8220.000000  0       -553246.078      -2925367.012      -6307417.561
10 0 59444   8280.000000  0       -625929.562      -2507371.217      -6477841.160
10 0 59444   8340.000000  0       -692283.560      -2078260.503      -6620922.538
10 0 59444   8400.000000  0       -751941.062      -1639890.648      -6736059.876
10 0 59444   8460.000000  0       -804579.459      -1194158.705      -6822768.246
10 0 59444   8520.000000  0       -849922.182       -742994.837      -6880681.542
10 0 59444   8580.000000  0       -887740.062       -288354.002      -6909553.921
10 0 59444   8640.000000  0       -917852.446        167792.386      -6909260.701
10 0 59444   8700.000000  0       -940128.057        623464.795      -6879798.922
10 0 59444   8760.000000  0       -954485.569       1076684.077      -6821287.492
10 0 59444   8820.000000  0       -960893.922       1525479.977      -6733966.732
10 0 59444   8880.000000  0       -959372.386       1967899.522      -6618197.526
10 0 59444   8940.000000  0       -949990.310       2402015.448      -6474460.088
10 0 59444   9000.000000  0       -932866.603       2825934.587      -6303352.239
10 0 59444   9060.000000  0       -908168.976       3237806.192      -6105587.198
10 0 59444   9120.000000  0       -876112.894       3635830.101      -5881990.828
10 0 59444   9180.000000  0       -836960.232       4018264.667      -5633498.467
10 0 59444   9240.000000  0       -791017.689       4383434.539      -5361151.354
10 0 59444   9300.000000  0       -738634.974       4729738.259      -5066092.538
10 0 59444   9360.000000  0       -680202.721       5055655.561      -4749562.327
10 0 59444   9420.000000  0       -616150.175       5359754.362      -4412893.270
10 0 59444   9480.000000  0       -546942.629       5640697.388      -4057504.706
10 0 59444   9540.000000  0       -473078.653       5897248.389      -3684896.900
10 0 59444   9600.000000  0       -395087.104       6128277.924      -3296644.816
10 0 59444   9660.000000  0       -313523.948       6332768.735      -2894391.529
10 0 59444   9720.000000  0       -228968.906       6509820.623      -2479841.234
10 0 59444   9780.000000  0       -142021.965       6658654.754      -2054751.949
10 0 59444   9840.000000  0        -53299.741       6778617.446      -1620927.942
10 0 59444   9900.000000  0         36568.272       6869183.339      -1180211.895
10 0 59444   9960.000000  0        126943.569       6929957.943       -734476.851
10 0 59444  10020.000000  0        217182.538       6960679.566       -285618.014
10 0 59444  10080.000000  0        306640.435       6961220.611        164455.601
10 0 59444  10140.000000  0        394675.369       6931588.172        613829.621
10 0 59444  10200.000000  0        480652.272       6871923.951       1060592.774
10 0 59444  10260.000000  0        563946.799       6782503.509       1502845.337
10 0 59444  10320.000000  0        643949.153       6663734.826       1938707.505
10 0 59444  10380.000000  0        720067.818       6516156.200       2366327.603
10 0 59444  10440.000000  0        791733.173       6340433.630       2783890.077
10 0 59444  10500.000000  0        858401.017       6137357.672       3189623.476
10 0 59444  10560.000000  0        919555.933       5907839.395       3581808.174
10 0 59444  10620.000000  0        974714.565       5652906.005       3958783.486
10 0 59444  10680.000000  0       1023428.726       5373696.227       4318954.984
10 0 59444  10740.000000  0       1065288.113       5071454.567       4660801.566
10 0 59444  10800.000000  0       1099922.738       4747525.079       4982881.571
10 0 59444  10860.000000  0       1127005.328       4403345.164       5283838.570
10 0 59444  10920.000000  0       1146253.498       4040438.868       5562406.863
10 0 59444  10980.000000  0       1157431.606       3660409.933       5817416.585
10 0 59444  11040.000000  0       1160352.313       3264934.451       6047798.447
10 0 59444  11100.000000  0       1154877.881       2855753.241       6252587.945
10 0 59444  11160.000000  0       1140921.210       2434664.036       6430929.121
10 0 59444  11220.000000  0       1118446.605       2003513.482       6582077.897
10 0 59444  11280.000000  0       1087470.268       1564188.908       6705404.921
10 0 59444  11340.000000  0       1048060.499       1118610.027       6800397.865
10 0 59444  11400.000000  0       1000337.632        668720.607       6866663.283
10 0 59444  11460.000000  0        944473.686        216480.124       6903928.046
10 0 59444  11520.000000  0        880691.750       -236144.648       6912040.426
10 0 59444  11580.000000  0        809265.050       -687188.178       6890970.655
10 0 59444  11640.000000  0        730515.795      -1134694.635       6840810.934
10 0 59444  11700.000000  0        644813.712      -1576726.253       6761775.015
10 0 59444  11760.000000  0        552574.322      -2011371.624       6654197.327
10 0 59444  11820.000000  0        454256.976      -2436753.900       6518531.679
10 0 59444  11880.000000  0        350362.614      -2851038.942       6355349.415
10 0 59444  11940.000000  0        241431.311      -3252443.150       6165336.971
10 0 59444  12000.000000  0        128039.630      -3639241.007       5949293.151
10 0 59444  12060.000000  0         10797.721      -4009772.481       5708125.999
10 0 59444  12120.000000  0       -109653.750      -4362450.140       5442849.210
10 0 59444  12180.000000  0       -232646.866      -4695766.028       5154578.208
10 0 59444  12240.000000  0       -357489.935      -5008298.336       4844525.786
10 0 59444  12300.000000  0       -483471.179      -5298717.761       4513997.210
10 0 59444  12360.000000  0       -609862.557      -5565793.415       4164384.844
10 0 59444  12420.000000  0       -735923.708      -5808398.251       3797162.400
10 0 59444  12480.000000  0       -860906.032      -6025514.052       3413878.863
10 0 59444  12540.000000  0       -984056.841      -6216235.982       3016152.034
10 0 59444  12600.000000  0      -1104623.536      -6379776.598       2605661.739
10 0 59444  12660.000000  0      -1221857.809      -6515469.362       2184142.803
10 0 59444  12720.000000  0      -1335019.972      -6622771.704       1753377.747
10 0 59444  12780.000000  0      -1443383.314      -6701267.453       1315189.070
10 0 59444  12840.000000  0      -1546238.324      -6750668.544        871431.380
10 0 59444  12900.000000  0      -1642896.833      -6770816.201        423983.396
10 0 59444  12960.000000  0      -1732696.090      -6761681.480        -25260.188
10 0 59444  13020.000000  0      -1815002.723      -6723365.194       -474396.913
10 0 59444  13080.000000  0      -1889216.555      -6656097.219       -921524.791
10 0 59444  13140.000000  0      -1954774.279      -6560235.202      -1364750.542
10 0 59444  13200.000000  0      -2011152.948      -6436262.652      -1802197.790
10 0 59444  13260.000000  0      -2057873.280      -6284786.449      -2232015.178
10 0 59444  13320.000000  0      -2094502.734      -6106533.759      -2652384.375
10 0 59444  13380.000000  0      -2120658.344      -5902348.354      -3061527.915
10 0 59444  13440.000000  0      -2136009.290      -5673186.390      -3457716.805
10 0 59444  13500.000000  0      -2140279.193      -5420111.675      -3839277.871
10 0 59444  13560.000000  0      -2133248.112      -5144290.462      -4204600.802
10 0 59444  13620.000000  0      -2114754.263      -4846985.828      -4552144.869
10 0 59444  13680.000000  0      -2084695.432      -4529551.664      -4880445.318
10 0 59444  13740.000000  0      -2043030.099      -4193426.300      -5188119.400
10 0 59444  13800.000000  0      -1989778.240      -3840125.805      -5473872.038
10 0 59444  13860.000000  0      -1925021.824      -3471236.995      -5736501.111
10 0 59444  13920.000000  0      -1848904.993      -3088410.165      -5974902.334
10 0 59444  13980.000000  0      -1761633.913      -2693351.563      -6188073.709
10 0 59444  14040.000000  0      -1663476.287      -2287815.680      -6375119.482
10 0 59444  14100.000000  0      -1554760.603      -1873597.417      -6535253.649
10 0 59444  14160.000000  0      -1435875.070      -1452524.163      -6667803.033
10 0 59444  14220.000000  0      -1307266.265      -1026447.759      -6772209.917
10 0 59444  14280.000000  0      -1169437.512       -597236.427      -6848034.212
10 0 59444  14340.000000  0      -1022946.938       -166766.659      -6894955.194
99
